[{"OBJECT_NAME":"KUIPER-00268","OBJECT_ID":"2026-030AC","EPOCH":"2026-03-26T12:56:30.666048","MEAN_MOTION":15.35904104,"ECCENTRICITY":0.0010483,"INCLINATION":51.8842,"RA_OF_ASC_NODE":137.7751,"ARG_OF_PERICENTER":181.0445,"MEAN_ANOMALY":179.0521,"EPHEMERIS_TYPE":0,"CLASSIFICATION_TYPE":"U","NORAD_CAT_ID":67790,"ELEMENT_SET_NO":999,"REV_AT_EPOCH":768,"BSTAR":-0.020281,"MEAN_MOTION_DOT":-0.00670394,"MEAN_MOTION_DDOT":0},{"OBJECT_NAME":"KUIPER-00270","OBJECT_ID":"2026-030AD","EPOCH":"2026-03-26T07:36:52.623936","MEAN_MOTION":15.34979241,"ECCENTRICITY":0.0011085,"INCLINATION":51.8812,"RA_OF_ASC_NODE":139.2617,"ARG_OF_PERICENTER":111.0571,"MEAN_ANOMALY":249.1601,"EPHEMERIS_TYPE":0,"CLASSIFICATION_TYPE":"U","NORAD_CAT_ID":67791,"ELEMENT_SET_NO":999,"REV_AT_EPOCH":764,"BSTAR":0.00096392,"MEAN_MOTION_DOT":0.00033028,"MEAN_MOTION_DDOT":0},{"OBJECT_NAME":"KUIPER-00274","OBJECT_ID":"2026-030AE","EPOCH":"2026-03-26T13:03:00.338688","MEAN_MOTION":15.30310971,"ECCENTRICITY":0.002264,"INCLINATION":51.8833,"RA_OF_ASC_NODE":139.2572,"ARG_OF_PERICENTER":139.9645,"MEAN_ANOMALY":220.3013,"EPHEMERIS_TYPE":0,"CLASSIFICATION_TYPE":"U","NORAD_CAT_ID":67792,"ELEMENT_SET_NO":999,"REV_AT_EPOCH":766,"BSTAR":0.02102,"MEAN_MOTION_DOT":0.0067902,"MEAN_MOTION_DDOT":0},{"OBJECT_NAME":"KUIPER-00275","OBJECT_ID":"2026-030AF","EPOCH":"2026-03-26T10:38:23.254080","MEAN_MOTION":15.35183551,"ECCENTRICITY":0.0009985,"INCLINATION":51.8837,"RA_OF_ASC_NODE":138.6231,"ARG_OF_PERICENTER":103.5767,"MEAN_ANOMALY":256.6332,"EPHEMERIS_TYPE":0,"CLASSIFICATION_TYPE":"U","NORAD_CAT_ID":67793,"ELEMENT_SET_NO":999,"REV_AT_EPOCH":766,"BSTAR":0.00066259,"MEAN_MOTION_DOT":0.00022693,"MEAN_MOTION_DDOT":0},{"OBJECT_NAME":"KUIPER-00276","OBJECT_ID":"2026-030AG","EPOCH":"2026-03-26T09:54:02.463264","MEAN_MOTION":15.29742883,"ECCENTRICITY":0.0017941,"INCLINATION":51.8841,"RA_OF_ASC_NODE":139.8772,"ARG_OF_PERICENTER":119.031,"MEAN_ANOMALY":241.2473,"EPHEMERIS_TYPE":0,"CLASSIFICATION_TYPE":"U","NORAD_CAT_ID":67794,"ELEMENT_SET_NO":999,"REV_AT_EPOCH":764,"BSTAR":0.0006337,"MEAN_MOTION_DOT":0.00018288,"MEAN_MOTION_DDOT":0},{"OBJECT_NAME":"KUIPER-00279","OBJECT_ID":"2026-030AH","EPOCH":"2026-03-26T10:16:21.984672","MEAN_MOTION":15.35874396,"ECCENTRICITY":0.000664,"INCLINATION":51.88,"RA_OF_ASC_NODE":138.5083,"ARG_OF_PERICENTER":94.1245,"MEAN_ANOMALY":266.05,"EPHEMERIS_TYPE":0,"CLASSIFICATION_TYPE":"U","NORAD_CAT_ID":67795,"ELEMENT_SET_NO":999,"REV_AT_EPOCH":766,"BSTAR":0.00080227,"MEAN_MOTION_DOT":0.00028178,"MEAN_MOTION_DDOT":0}]
