KUIPER-00268            
1 67790U 26030AC  26085.53924382 -.00670394  00000+0 -20281-1 0  9991
2 67790  51.8842 137.7751 0010483 181.0445 179.0521 15.35904104  7687
KUIPER-00270            
1 67791U 26030AD  26085.31727574  .00033028  00000+0  96392-3 0  9995
2 67791  51.8812 139.2617 0011085 111.0571 249.1601 15.34979241  7642
KUIPER-00274            
1 67792U 26030AE  26085.54375392  .00679020  00000+0  21020-1 0  9990
2 67792  51.8833 139.2572 0022640 139.9645 220.3013 15.30310971  7661
KUIPER-00275            
1 67793U 26030AF  26085.44332470  .00022693  00000+0  66259-3 0  9993
2 67793  51.8837 138.6231 0009985 103.5767 256.6332 15.35183551  7663
KUIPER-00276            
1 67794U 26030AG  26085.41252851  .00018288  00000+0  63370-3 0  9991
2 67794  51.8841 139.8772 0017941 119.0310 241.2473 15.29742883  7645
KUIPER-00279            
1 67795U 26030AH  26085.42803223  .00028178  00000+0  80227-3 0  9997
2 67795  51.8800 138.5083 0006640  94.1245 266.0500 15.35874396  7666
